{"type": "FeatureCollection", "features": [ {"type": "Feature", "properties": {"norad_id": 51444, "name": "CSG-2", "group": "resource", "lat": 9.636151832518507, "lon": -8.747176148664307, "alt_km": 624.202734960274, "timestamp": "2025-12-14T14:39:29.034242+00:00", "meta": {"OBJECT_NAME": "CSG-2", "OBJECT_ID": "2022-008A", "EPOCH": "2025-12-13T23:18:38.856384", "MEAN_MOTION": 14.82165733, "ECCENTRICITY": 0.00015059, "INCLINATION": 97.8809, "RA_OF_ASC_NODE": 169.2756, "ARG_OF_PERICENTER": 80.9136, "MEAN_ANOMALY": 279.2247, "EPHEMERIS_TYPE": 0, "CLASSIFICATION_TYPE": "U", "NORAD_CAT_ID": 51444, "ELEMENT_SET_NO": 999, "REV_AT_EPOCH": 20915, "BSTAR": 7.5723594e-05, "MEAN_MOTION_DOT": 5.51e-06, "MEAN_MOTION_DDOT": 0}, "tle": {"line1": "1 51444U 22008A   25347.97128306  .00000551  00000+0  75724-4 0  9996", "line2": "2 51444  97.8809 169.2756 0001505  80.9136 279.2247 14.82165733209155"}}, "geometry": {"type": "Point", "coordinates": [-8.747176148664307, 9.636151832518507]}}, {"type": "Feature", "properties": {"norad_id": 52912, "name": "GAOFEN-12 03", "group": "resource", "lat": 68.08269446875202, "lon": -144.1317990092422, "alt_km": 622.4112715914098, "timestamp": "2025-12-14T14:39:29.034252+00:00", "meta": {"OBJECT_NAME": "GAOFEN-12 03", "OBJECT_ID": "2022-069A", "EPOCH": "2025-12-13T23:44:17.065824", "MEAN_MOTION": 14.79616014, "ECCENTRICITY": 0.00021805, "INCLINATION": 97.848, "RA_OF_ASC_NODE": 235.3093, "ARG_OF_PERICENTER": 60.0134, "MEAN_ANOMALY": 300.1294, "EPHEMERIS_TYPE": 0, "CLASSIFICATION_TYPE": "U", "NORAD_CAT_ID": 52912, "ELEMENT_SET_NO": 999, "REV_AT_EPOCH": 18722, "BSTAR": 0.00032121285, "MEAN_MOTION_DOT": 2.357e-05, "MEAN_MOTION_DDOT": 0}, "tle": {"line1": "1 52912U 22069A   25347.98908641  .00002357  00000+0  32121-3 0  9992", "line2": "2 52912  97.8480 235.3093 0002180  60.0134 300.1294 14.79616014187225"}}, "geometry": {"type": "Point", "coordinates": [-144.1317990092422, 68.08269446875202]}}, {"type": "Feature", "properties": {"norad_id": 54754, "name": "SWOT", "group": "resource", "lat": -49.938852207350955, "lon": 119.61664933212059, "alt_km": 900.0606222539618, "timestamp": "2025-12-14T14:39:29.034263+00:00", "meta": {"OBJECT_NAME": "SWOT", "OBJECT_ID": "2022-173A", "EPOCH": "2025-12-13T23:50:11.537376", "MEAN_MOTION": 14.00167191, "ECCENTRICITY": 3.338e-05, "INCLINATION": 77.6107, "RA_OF_ASC_NODE": 285.2976, "ARG_OF_PERICENTER": 107.3923, "MEAN_ANOMALY": 252.7265, "EPHEMERIS_TYPE": 0, "CLASSIFICATION_TYPE": "U", "NORAD_CAT_ID": 54754, "ELEMENT_SET_NO": 999, "REV_AT_EPOCH": 15323, "BSTAR": 6.6077411e-05, "MEAN_MOTION_DOT": 9.5e-07, "MEAN_MOTION_DDOT": 0}, "tle": {"line1": "1 54754U 22173A   25347.99318909  .00000095  00000+0  66077-4 0  9992", "line2": "2 54754  77.6107 285.2976 0000333 107.3923 252.7265 14.00167191153231"}}, "geometry": {"type": "Point", "coordinates": [119.61664933212059, -49.938852207350955]}}, {"type": "Feature", "properties": {"norad_id": 57654, "name": "GAOFEN-12 04", "group": "resource", "lat": -58.86783282209659, "lon": 71.02836905407602, "alt_km": 638.2908923223486, "timestamp": "2025-12-14T14:39:29.034272+00:00", "meta": {"OBJECT_NAME": "GAOFEN-12 04", "OBJECT_ID": "2023-123A", "EPOCH": "2025-12-14T00:35:40.313760", "MEAN_MOTION": 14.79706033, "ECCENTRICITY": 0.00013457, "INCLINATION": 97.9118, "RA_OF_ASC_NODE": 263.7625, "ARG_OF_PERICENTER": 75.0998, "MEAN_ANOMALY": 285.0363, "EPHEMERIS_TYPE": 0, "CLASSIFICATION_TYPE": "U", "NORAD_CAT_ID": 57654, "ELEMENT_SET_NO": 999, "REV_AT_EPOCH": 12524, "BSTAR": 0.00025915998, "MEAN_MOTION_DOT": 1.895e-05, "MEAN_MOTION_DDOT": 0}, "tle": {"line1": "1 57654U 23123A   25348.02477215  .00001895  00000+0  25916-3 0  9996", "line2": "2 57654  97.9118 263.7625 0001345  75.0998 285.0363 14.79706033125247"}}, "geometry": {"type": "Point", "coordinates": [71.02836905407602, -58.86783282209659]}}, {"type": "Feature", "properties": {"norad_id": 59065, "name": "PARS 1", "group": "resource", "lat": -31.4152145269694, "lon": -35.82384284715897, "alt_km": 450.38590268174903, "timestamp": "2025-12-14T14:39:29.034282+00:00", "meta": {"OBJECT_NAME": "PARS 1", "OBJECT_ID": "2024-039Q", "EPOCH": "2025-12-13T23:12:40.080384", "MEAN_MOTION": 15.41010217, "ECCENTRICITY": 0.00125086, "INCLINATION": 97.4632, "RA_OF_ASC_NODE": 318.9264, "ARG_OF_PERICENTER": 68.6451, "MEAN_ANOMALY": 291.6129, "EPHEMERIS_TYPE": 0, "CLASSIFICATION_TYPE": "U", "NORAD_CAT_ID": 59065, "ELEMENT_SET_NO": 999, "REV_AT_EPOCH": 10007, "BSTAR": 0.00031092936, "MEAN_MOTION_DOT": 0.00012778, "MEAN_MOTION_DDOT": 0}, "tle": {"line1": "1 59065U 24039Q   25347.96713056  .00012778  00000+0  31093-3 0  9994", "line2": "2 59065  97.4632 318.9264 0012508  68.6451 291.6129 15.41010217100077"}}, "geometry": {"type": "Point", "coordinates": [-35.82384284715897, -31.4152145269694]}}, {"type": "Feature", "properties": {"norad_id": 59371, "name": "RESURS-P 4", "group": "resource", "lat": 50.05433647725503, "lon": -73.84597152978569, "alt_km": 464.0325150069775, "timestamp": "2025-12-14T14:39:29.034292+00:00", "meta": {"OBJECT_NAME": "RESURS-P 4", "OBJECT_ID": "2024-061A", "EPOCH": "2025-12-14T00:19:50.022624", "MEAN_MOTION": 15.32098912, "ECCENTRICITY": 0.00014448, "INCLINATION": 97.254, "RA_OF_ASC_NODE": 294.3176, "ARG_OF_PERICENTER": 54.0259, "MEAN_ANOMALY": 306.1117, "EPHEMERIS_TYPE": 0, "CLASSIFICATION_TYPE": "U", "NORAD_CAT_ID": 59371, "ELEMENT_SET_NO": 999, "REV_AT_EPOCH": 9540, "BSTAR": 0.00016029498, "MEAN_MOTION_DOT": 4.891e-05, "MEAN_MOTION_DDOT": 0}, "tle": {"line1": "1 59371U 24061A   25348.01377341  .00004891  00000+0  16029-3 0  9998", "line2": "2 59371  97.2540 294.3176 0001444  54.0259 306.1117 15.32098912 95401"}}, "geometry": {"type": "Point", "coordinates": [-73.84597152978569, 50.05433647725503]}}, {"type": "Feature", "properties": {"norad_id": 59625, "name": "LEGION 1", "group": "resource", "lat": 9.00720680320429, "lon": -115.56682897069832, "alt_km": 520.2889803341195, "timestamp": "2025-12-14T14:39:29.034302+00:00", "meta": {"OBJECT_NAME": "LEGION 1", "OBJECT_ID": "2024-081A", "EPOCH": "2025-12-13T22:04:15.824640", "MEAN_MOTION": 15.16496264, "ECCENTRICITY": 0.00038809, "INCLINATION": 97.5213, "RA_OF_ASC_NODE": 62.5479, "ARG_OF_PERICENTER": 312.8685, "MEAN_ANOMALY": 47.2222, "EPHEMERIS_TYPE": 0, "CLASSIFICATION_TYPE": "U", "NORAD_CAT_ID": 59625, "ELEMENT_SET_NO": 999, "REV_AT_EPOCH": 8945, "BSTAR": 0.00028826494, "MEAN_MOTION_DOT": 5.549e-05, "MEAN_MOTION_DDOT": 0}, "tle": {"line1": "1 59625U 24081A   25347.91962760  .00005549  00000+0  28826-3 0  9994", "line2": "2 59625  97.5213  62.5479 0003880 312.8685  47.2222 15.16496264 89450"}}, "geometry": {"type": "Point", "coordinates": [-115.56682897069832, 9.00720680320429]}}, {"type": "Feature", "properties": {"norad_id": 59626, "name": "LEGION 2", "group": "resource", "lat": -9.319107498494233, "lon": 64.56286362431625, "alt_km": 518.8929469245741, "timestamp": "2025-12-14T14:39:29.034312+00:00", "meta": {"OBJECT_NAME": "LEGION 2", "OBJECT_ID": "2024-081B", "EPOCH": "2025-12-13T22:51:48.891744", "MEAN_MOTION": 15.1651029, "ECCENTRICITY": 0.00056664, "INCLINATION": 97.5218, "RA_OF_ASC_NODE": 62.6679, "ARG_OF_PERICENTER": 288.5838, "MEAN_ANOMALY": 71.4779, "EPHEMERIS_TYPE": 0, "CLASSIFICATION_TYPE": "U", "NORAD_CAT_ID": 59626, "ELEMENT_SET_NO": 999, "REV_AT_EPOCH": 8946, "BSTAR": 0.00033062693, "MEAN_MOTION_DOT": 6.379e-05, "MEAN_MOTION_DDOT": 0}, "tle": {"line1": "1 59626U 24081B   25347.95264921  .00006379  00000+0  33063-3 0  9994", "line2": "2 59626  97.5218  62.6679 0005666 288.5838  71.4779 15.16510290 89465"}}, "geometry": {"type": "Point", "coordinates": [64.56286362431625, -9.319107498494233]}}, {"type": "Feature", "properties": {"norad_id": 60182, "name": "ALOS-4 (DAICHI-4)", "group": "resource", "lat": 59.925516138542996, "lon": -82.65481925171429, "alt_km": 624.2353950204206, "timestamp": "2025-12-14T14:39:29.034322+00:00", "meta": {"OBJECT_NAME": "ALOS-4 (DAICHI-4)", "OBJECT_ID": "2024-123A", "EPOCH": "2025-12-10T20:50:51.532800", "MEAN_MOTION": 14.79478132, "ECCENTRICITY": 0.0001419, "INCLINATION": 97.9225, "RA_OF_ASC_NODE": 79.7424, "ARG_OF_PERICENTER": 101.2045, "MEAN_ANOMALY": 258.9326, "EPHEMERIS_TYPE": 0, "CLASSIFICATION_TYPE": "U", "NORAD_CAT_ID": 60182, "ELEMENT_SET_NO": 999, "REV_AT_EPOCH": 7803, "BSTAR": 0.00039567, "MEAN_MOTION_DOT": 2.905e-05, "MEAN_MOTION_DDOT": 0}, "tle": {"line1": "1 60182U 24123A   25344.86865200  .00002905  00000+0  39567-3 0  9990", "line2": "2 60182  97.9225  79.7424 0001419 101.2045 258.9326 14.79478132 78033"}}, "geometry": {"type": "Point", "coordinates": [-82.65481925171429, 59.925516138542996]}}, {"type": "Feature", "properties": {"norad_id": 60452, "name": "LEGION 3", "group": "resource", "lat": 33.36732589731872, "lon": -18.677375095747575, "alt_km": 523.0936585739537, "timestamp": "2025-12-14T14:39:29.034333+00:00", "meta": {"OBJECT_NAME": "LEGION 3", "OBJECT_ID": "2024-146A", "EPOCH": "2025-12-13T22:36:58.458528", "MEAN_MOTION": 15.15778383, "ECCENTRICITY": 0.00150084, "INCLINATION": 45.0016, "RA_OF_ASC_NODE": 303.6855, "ARG_OF_PERICENTER": 205.1861, "MEAN_ANOMALY": 154.8287, "EPHEMERIS_TYPE": 0, "CLASSIFICATION_TYPE": "U", "NORAD_CAT_ID": 60452, "ELEMENT_SET_NO": 999, "REV_AT_EPOCH": 7391, "BSTAR": 0.00033885844, "MEAN_MOTION_DOT": 6.334e-05, "MEAN_MOTION_DDOT": 0}, "tle": {"line1": "1 60452U 24146A   25347.94234327  .00006334  00000+0  33886-3 0  9995", "line2": "2 60452  45.0016 303.6855 0015008 205.1861 154.8287 15.15778383 73915"}}, "geometry": {"type": "Point", "coordinates": [-18.677375095747575, 33.36732589731872]}}]}